NORAD_CAT_ID,OBJECT_NAME,OBJECT_TYPE,EPOCH,MEAN_MOTION,ECCENTRICITY,INCLINATION,RA_OF_ASC_NODE,ARG_OF_PERICENTER,MEAN_ANOMALY,BSTAR,MEAN_MOTION_DOT,MEAN_MOTION_DDOT,TLE_LINE0,TLE_LINE1,TLE_LINE2,SEMIMAJOR_AXIS,PERIOD,APOGEE,PERIGEE,DECAYED
53255.0,STARLINK-4142,PAYLOAD,2024-06-20 20:40:27,15.08836556,0.0001627,53.2183,128.0627,85.6306,274.4872,4.3162e-05,3.99e-06,0.0,0 STARLINK-4142,1 53255U 22086P   24172.86143270  .00000399  00000-0  43162-4 0  9996,2 53255  53.2183 128.0627 0001627  85.6306 274.4872 15.08836556106439,6917.891,95.438,540.881,538.63,0.0
53255.0,STARLINK-4142,PAYLOAD,2024-06-21 04:37:23,15.08840836,0.0001607,53.218,126.5753,83.0313,277.0862,3.0425e-06,-2.4e-06,0.0,0 STARLINK-4142,1 53255U 22086P   24173.19263236 -.00000240  00000-0  30425-5 0  9993,2 53255  53.2180 126.5753 0001607  83.0313 277.0862 15.08840836106307,6917.878,95.438,540.855,538.631,0.0
53255.0,STARLINK-4142,PAYLOAD,2024-06-21 06:12:46,15.08842111,0.0001605,53.218,126.2778,82.9062,277.2112,1.2542e-05,-8.8e-07,0.0,0 STARLINK-4142,1 53255U 22086P   24173.25887116 -.00000088  00000-0  12542-4 0  9998,2 53255  53.2180 126.2778 0001605  82.9062 277.2112 15.08842111106496,6917.874,95.437,540.849,538.629,0.0
53255.0,STARLINK-4142,PAYLOAD,2024-06-22 02:52:47,15.08838866,0.0001456,53.2168,122.4113,88.5023,271.6136,3.7285e-05,3.05e-06,0.0,0 STARLINK-4142,1 53255U 22086P   24174.11999171  .00000305  00000-0  37285-4 0  9991,2 53255  53.2168 122.4113 0001456  88.5023 271.6136 15.08838866106627,6917.884,95.438,540.756,538.742,0.0
53255.0,STARLINK-4142,PAYLOAD,2024-06-23 02:43:36,15.08824549,0.0001521,53.2166,117.9505,82.451,277.6655,-9.7598e-05,-1.84e-05,0.0,0 STARLINK-4142,1 53255U 22086P   24175.11361233 -.00001840  00000-0 -97598-4 0  9994,2 53255  53.2166 117.9505 0001521  82.4510 277.6655 15.08824549106597,6917.928,95.439,540.845,538.74,0.0
53255.0,STARLINK-4142,PAYLOAD,2024-06-23 05:54:22,15.08827478,0.0001458,53.2162,117.3548,85.9832,274.1327,-7.5132e-05,-1.483e-05,0.0,0 STARLINK-4142,1 53255U 22086P   24175.24609041 -.00001483  00000-0 -75132-4 0  9993,2 53255  53.2162 117.3548 0001458  85.9832 274.1327 15.08827478106792,6917.919,95.438,540.792,538.775,0.0
53255.0,STARLINK-4142,PAYLOAD,2024-06-24 02:34:21,15.08838942,0.0001807,53.217,113.4855,82.1472,277.9725,0.0001351,1.863e-05,0.0,0 STARLINK-4142,1 53255U 22086P   24176.10719743  .00001863  00000-0  13510-3 0  9991,2 53255  53.2170 113.4855 0001807  82.1472 277.9725 15.08838942106742,6917.884,95.438,540.999,538.499,0.0
53255.0,STARLINK-4142,PAYLOAD,2024-06-24 05:45:07,15.08843475,0.0001713,53.217,112.8884,85.5328,274.5859,0.00010349,1.36e-05,0.0,0 STARLINK-4142,1 53255U 22086P   24176.23967484  .00001360  00000-0  10349-3 0  9991,2 53255  53.2170 112.8884 0001713  85.5328 274.5859 15.08843475106940,6917.87,95.437,540.92,538.55,0.0
53255.0,STARLINK-4142,PAYLOAD,2024-06-25 02:25:09,15.08837459,0.0001258,53.2163,109.0244,89.4336,270.6801,7.8766e-05,9.66e-06,0.0,0 STARLINK-4142,1 53255U 22086P   24177.10079965  .00000966  00000-0  78766-4 0  9995,2 53255  53.2163 109.0244 0001258  89.4336 270.6801 15.08837459106899,6917.888,95.438,540.623,538.883,0.0
53255.0,STARLINK-4142,PAYLOAD,2024-06-26 00:40:32,15.08849196,0.0001378,53.2167,104.8611,99.2244,260.8904,-4.6066e-05,-1.021e-05,0.0,0 STARLINK-4142,1 53255U 22086P   24178.02815458 -.00001021  00000-0 -46066-4 0  9995,2 53255  53.2167 104.8611 0001378  99.2244 260.8904 15.08849196107037,6917.852,95.437,540.671,538.764,0.0
53255.0,STARLINK-4142,PAYLOAD,2024-06-26 22:55:56,15.08838822,0.0001259,53.2168,100.7039,90.0131,270.1006,-1.9044e-05,-5.91e-06,0.0,0 STARLINK-4142,1 53255U 22086P   24178.95551814 -.00000591  00000-0 -19044-4 0  9997,2 53255  53.2168 100.7039 0001259  90.0131 270.1006 15.08838822107355,6917.884,95.438,540.62,538.878,0.0
53255.0,STARLINK-4142,PAYLOAD,2024-06-27 02:06:43,15.08838844,0.0001243,53.2166,100.1041,82.9827,277.1307,-1.8758e-05,-5.86e-06,0.0,0 STARLINK-4142,1 53255U 22086P   24179.08799783 -.00000586  00000-0 -18758-4 0  9996,2 53255  53.2166 100.1041 0001243  82.9827 277.1307 15.08838844107192,6917.884,95.438,540.609,538.889,0.0
53255.0,STARLINK-4142,PAYLOAD,2024-06-27 11:39:01,15.08848037,0.0001153,53.216,98.327,88.2234,271.889,6.2084e-05,7.01e-06,0.0,0 STARLINK-4142,1 53255U 22086P   24179.48542844  .00000701  00000-0  62084-4 0  9992,2 53255  53.2160  98.3270 0001153  88.2234 271.8890 15.08848037107259,6917.856,95.437,540.518,538.923,0.0
53255.0,STARLINK-4142,PAYLOAD,2024-06-27 22:46:44,15.0882573,0.0001093,53.2164,96.2464,96.9923,263.1194,-9.2255e-05,-1.755e-05,0.0,0 STARLINK-4142,1 53255U 22086P   24179.94912857 -.00001755  00000-0 -92255-4 0  9993,2 53255  53.2164  96.2464 0001093  96.9923 263.1194 15.08825730107503,6917.924,95.438,540.545,539.033,0.0
53255.0,STARLINK-4142,PAYLOAD,2024-06-28 01:57:29,15.08839216,0.0001105,53.2155,95.6505,116.9074,243.2032,1.8094e-05,0.0,0.0,0 STARLINK-4142,1 53255U 22086P   24180.08159686  .00000000  00000-0  18094-4 0  9992,2 53255  53.2155  95.6505 0001105 116.9074 243.2032 15.08839216107342,6917.883,95.438,540.512,538.983,0.0
53255.0,STARLINK-4142,PAYLOAD,2024-06-28 11:29:48,15.08846853,0.0001114,53.215,93.8646,79.7439,280.3679,0.00010284,1.35e-05,0.0,0 STARLINK-4142,1 53255U 22086P   24180.47902925  .00001350  00000-0  10284-3 0  9998,2 53255  53.2150  93.8646 0001114  79.7439 280.3679 15.08846853107405,6917.859,95.437,540.495,538.954,0.0
53255.0,STARLINK-4142,PAYLOAD,2024-06-28 22:37:30,15.08843071,0.0001169,53.2148,91.7796,109.1719,250.94,3.3211e-05,2.41e-06,0.0,0 STARLINK-4142,1 53255U 22086P   24180.94271236  .00000241  00000-0  33211-4 0  9998,2 53255  53.2148  91.7796 0001169 109.1719 250.9400 15.08843071107655,6917.871,95.437,540.545,538.927,0.0
53255.0,STARLINK-4142,PAYLOAD,2024-06-29 11:20:33,15.0886861,6.41e-05,53.2135,89.403,79.8652,280.2412,0.00018061,2.59e-05,0.0,0 STARLINK-4142,1 53255U 22086P   24181.47260550  .00002590  00000-0  18061-3 0  9998,2 53255  53.2135  89.4030 0000641  79.8652 280.2412 15.08868610107553,6917.793,95.436,540.101,539.215,0.0
53255.0,STARLINK-4142,PAYLOAD,2024-06-29 17:42:09,15.08813105,0.0001619,53.214,88.2142,81.0276,279.0899,-6.1684e-05,-1.269e-05,0.0,0 STARLINK-4142,1 53255U 22086P   24181.73761072 -.00001269  00000-0 -61684-4 0  9996,2 53255  53.2140  88.2142 0001619  81.0276 279.0899 15.08813105107591,6917.963,95.439,540.948,538.708,0.0
53255.0,STARLINK-4142,PAYLOAD,2024-06-29 22:28:19,15.08811313,0.000131,53.2138,87.3235,79.5978,280.5161,-8.1922e-05,-1.59e-05,0.0,0 STARLINK-4142,1 53255U 22086P   24181.93633391 -.00001590  00000-0 -81922-4 0  9994,2 53255  53.2138  87.3235 0001310  79.5978 280.5161 15.08811313107802,6917.968,95.439,540.739,538.927,0.0
53255.0,STARLINK-4142,PAYLOAD,2024-06-30 11:11:23,15.08836703,0.0001271,53.2168,84.9456,68.3516,291.7611,-8.8881e-05,-1.702e-05,0.0,0 STARLINK-4142,1 53255U 22086P   24182.46624258 -.00001702  00000-0 -88881-4 0  9991,2 53255  53.2168  84.9456 0001271  68.3516 291.7611 15.08836703107885,6917.89,95.438,540.635,538.876,0.0
53255.0,STARLINK-4142,PAYLOAD,2024-06-30 20:43:42,15.08833141,0.000139,53.2192,83.1584,83.8893,276.2258,-4.6546e-05,-1.028e-05,0.0,0 STARLINK-4142,1 53255U 22086P   24182.86368547 -.00001028  00000-0 -46546-4 0  9994,2 53255  53.2192  83.1584 0001390  83.8893 276.2258 15.08833141107762,6917.901,95.438,540.728,538.805,0.0
53255.0,STARLINK-4142,PAYLOAD,2024-06-30 22:19:05,15.08834329,0.0001334,53.2187,82.8618,83.9263,276.1882,-2.1721e-05,-6.34e-06,0.0,0 STARLINK-4142,1 53255U 22086P   24182.92992410 -.00000634  00000-0 -21721-4 0  9993,2 53255  53.2187  82.8618 0001334  83.9263 276.1882 15.08834329107952,6917.898,95.438,540.686,538.84,0.0
53255.0,STARLINK-4142,PAYLOAD,2024-07-01 03:05:14,15.08845027,0.0001426,53.2192,81.9677,98.1657,261.9497,-6.8962e-05,-1.385e-05,0.0,0 STARLINK-4142,1 53255U 22086P   24183.12863880 -.00001385  00000-0 -68962-4 0  9996,2 53255  53.2192  81.9677 0001426  98.1657 261.9497 15.08845027107805,6917.865,95.437,540.717,538.744,0.0
53255.0,STARLINK-4142,PAYLOAD,2024-07-01 20:34:29,15.08820557,0.0001204,53.2184,78.697,86.7407,273.3723,0.00027976,4.165e-05,0.0,0 STARLINK-4142,1 53255U 22086P   24183.85728164  .00004165  00000-0  27976-3 0  9997,2 53255  53.2184  78.6970 0001204  86.7407 273.3723 15.08820557107917,6917.94,95.439,540.638,538.972,0.0
53255.0,STARLINK-4142,PAYLOAD,2024-07-01 22:09:52,15.08820396,0.0001191,53.2184,78.3996,86.5025,273.6103,0.00027454,4.082e-05,0.0,0 STARLINK-4142,1 53255U 22086P   24183.92352275  .00004082  00000-0  27454-3 0  9990,2 53255  53.2184  78.3996 0001191  86.5025 273.6103 15.08820396108109,6917.94,95.439,540.629,538.981,0.0
53255.0,STARLINK-4142,PAYLOAD,2024-07-02 02:56:01,15.08830132,0.0001365,53.2182,77.5074,88.8796,271.2353,0.00013342,1.836e-05,0.0,0 STARLINK-4142,1 53255U 22086P   24184.12224318  .00001836  00000-0  13342-3 0  9994,2 53255  53.2182  77.5074 0001365  88.8796 271.2353 15.08830132108131,6917.911,95.438,540.72,538.831,0.0
53255.0,STARLINK-4142,PAYLOAD,2024-07-02 20:25:14,15.08927037,0.0001904,53.2175,74.2354,75.6695,284.4508,-0.0011791,-0.0001905,0.0,0 STARLINK-4142,1 53255U 22086P   24184.85086367 -.00019050  00000-0 -11791-2 0  9998,2 53255  53.2175  74.2354 0001904  75.6695 284.4508 15.08927037108060,6917.614,95.432,540.796,538.162,0.0
53255.0,STARLINK-4142,PAYLOAD,2024-07-02 22:00:37,15.08926541,0.000171,53.218,73.9382,75.6097,284.5085,-0.0012081,-0.00019509,0.0,0 STARLINK-4142,1 53255U 22086P   24184.91710100 -.00019509  00000-0 -12081-2 0  9996,2 53255  53.2180  73.9382 0001710  75.6097 284.5085 15.08926541108255,6917.616,95.432,540.664,538.298,0.0
53255.0,STARLINK-4142,PAYLOAD,2024-07-03 09:08:20,15.08845113,0.0001225,53.2178,71.8585,86.9655,273.1478,7.8478e-05,9.62e-06,0.0,0 STARLINK-4142,1 53255U 22086P   24185.38079829  .00000962  00000-0  78478-4 0  9999,2 53255  53.2178  71.8585 0001225  86.9655 273.1478 15.08845113108143,6917.865,95.437,540.577,538.882,0.0
